STARLINK-1539
1 26072C 20055AX  21325.17928307  .00002990  00000-0  20025-3 0  3256
2 26072  53.0542 302.4131 0001850  57.3598  56.8354 15.06405126    17
